AKEBONO (EXOS-D)        
1 19822U 89016A   20232.37719046  .00025553  66722-6  44369-3 0  9990
2 19822  75.0112 350.7454 1720593 201.5712 150.3431 12.10713959 47212
HST                     
1 20580U 90037B   20232.51655681  .00000359  00000-0  10825-4 0  9997
2 20580  28.4691 262.5538 0002920  53.6215  98.9183 15.09418927465507
POLAR                   
1 23802U 96013A   20232.07755788  .00000286  00000-0  00000-0 0  9996
2 23802  78.7073 249.0337 6265265 281.2197  18.6243  1.29846552117228
SWAS                    
1 25560U 98071A   20232.39624135  .00000015  00000-0  10043-4 0  9993
2 25560  69.8972 225.2782 0010921 253.2018 106.7940 14.93896574178642
ORSTED                  
1 25635U 99008B   20232.51251516  .00000005  00000-0  83926-5 0  9990
2 25635  96.4451 241.9451 0139607 148.7319 212.2278 14.48217884133746
CXO                     
1 25867U 99040B   20232.63488707  .00000632  00000-0  00000+0 0  9992
2 25867  61.3917 265.3546 7840479 227.4704   0.4385  0.37809321 20435
XMM-NEWTON              
1 25989U 99066A   20233.37257163  .00000202  00000-0  00000+0 0  9990
2 25989  71.0995 319.3841 7031264  92.7200   0.5319  0.50137518 26701
TERRA                   
1 25994U 99068A   20232.48375122  .00000004  00000-0  10889-4 0  9996
2 25994  98.2100 305.8829 0001175 104.5516 255.5815 14.57110810 99492
CLUSTER II-FM7 (SAMBA)  
1 26410U 00041A   20234.93939229 -.00000046  00000-0  00000+0 0  9995
2 26410 132.0230 342.1384 4472328 184.9353 359.3734  0.44196585 22633
CLUSTER II-FM6 (SALSA)  
1 26411U 00041B   20223.72976033 -.00000047  00000-0  00000+0 0  9996
2 26411 132.0619 343.3938 5776125 190.4324 359.2889  0.44214292 21899
CLUSTER II-FM5 (RUMBA)  
1 26463U 00045A   20234.99693886 -.00000069  00000-0  00000+0 0  9994
2 26463 135.7312 343.1742 5393778 190.4435 359.4270  0.44217307 23213
CLUSTER II-FM8 (TANGO)  
1 26464U 00045B   20234.92841074 -.00000046  00000-0  00000-0 0  9998
2 26464 132.0249 342.1314 4469635 184.9420 359.3482  0.44217753 10882
ODIN                    
1 26702U 01007A   20232.55387018  .00000064  00000-0  81820-5 0  9995
2 26702  97.5534 248.4643 0012406  56.7860 303.4556 15.08139312 65727
TIMED                   
1 26998U 01055B   20232.52056456  .00000052  00000-0  96428-5 0  9998
2 26998  74.0728 167.6477 0002392 250.6385 109.4537 14.88207494 13849
RHESSI                  
1 27370U 02004A   20232.26930057  .00001610  00000-0  53736-4 0  9992
2 27370  38.0322 157.0234 0010807 134.6880 225.4773 15.32996714 23975
INTEGRAL                
1 27540U 02048A   20230.66229616  .00000731  00000-0  00000+0 0  9997
2 27540  56.0289 108.9940 8971698 293.2729   2.0480  0.37583861 18625
CORIOLIS                
1 27640U 03001A   20232.60087309  .00000001  00000-0  21557-4 0  9990
2 27640  98.7265 241.0768 0013507 211.5582 256.3402 14.19044628912391
SORCE                   
1 27651U 03004A   20232.48219589  .00000013  00000-0  15573-4 0  9992
2 27651  39.9966 338.5336 0021426 101.9616 258.3576 14.89136944953591
MOST                    
1 27843U 03031D   20232.51933146 -.00000021  00000-0  10542-4 0  9992
2 27843  98.7100 238.9022 0008886 272.3074  87.7085 14.20615682888556
SCISAT 1                
1 27858U 03036A   20232.58038426  .00000018  00000-0  75565-5 0  9999
2 27858  73.9323  60.3801 0009079 255.3245 104.6923 14.77297636916977
SWIFT                   
1 28485U 04047A   20232.56574957  .00000724  00000-0  18813-4 0  9997
2 28485  20.5569 303.0530 0011211 134.1802 225.9554 15.04655761862991
FORMOSAT-3 FM6          
1 29047U 06011A   20232.56006848  .00000009  00000-0  19772-4 0  9995
2 29047  71.9805 341.1872 0051796 311.8840  47.7883 14.28747848750331
FORMOSAT-3 FM1          
1 29048U 06011B   20232.51029918  .00000033  00000-0  29333-4 0  9995
2 29048  71.9645 252.1244 0045854 271.3460  88.2424 14.28711868752813
FORMOSAT-3 FM5          
1 29049U 06011C   20232.57780291  .00000008  00000-0  19557-4 0  9999
2 29049  72.0200  63.9930 0036487 296.3915  63.3477 14.28793098748617
FORMOSAT-3 FM3          
1 29050U 06011D   20232.36061001  .00000079  00000-0  27021-4 0  9992
2 29050  72.0148 204.0987 0050934 212.5857 147.2150 14.58938764765509
FORMOSAT-3 FM4          
1 29051U 06011E   20232.57655223  .00000029  00000-0  27227-4 0  9994
2 29051  72.0069 325.9298 0068050 177.2365 182.9162 14.28824392751208
FORMOSAT-3 FM2          
1 29052U 06011F   20232.57151923 -.00000017  00000-0  95154-5 0  9996
2 29052  72.0348  40.3321 0041639 257.2318 102.4164 14.28930076748713
CLOUDSAT                
1 29107U 06016A   20232.52162148  .00000065  00000-0  22325-4 0  9999
2 29107  98.2348 179.5844 0001797 139.9799 220.1534 14.62434169761544
CALIPSO                 
1 29108U 06016B   20232.52106632  .00000066  00000-0  22536-4 0  9991
2 29108  98.2332 179.3546 0001405  75.4277 284.7080 14.62431801761537
HINODE (SOLAR-B)        
1 29479U 06041A   20232.52955043  .00000051  00000-0  18516-4 0  9995
2 29479  98.1593 243.8202 0017379 165.7213 194.4485 14.65079906743120
SJ-6C                   
1 29505U 06046A   20232.51206270 -.00000164  00000-0 -96999-5 0  9999
2 29505  97.8151 246.0152 0004542 167.0683 193.0666 14.94894003753031
SJ-6D                   
1 29506U 06046B   20232.58295663 -.00000004  00000-0  50209-5 0  9997
2 29506  97.8341 246.2220 0000673 272.4262  87.6886 14.93523641752594
AGILE                   
1 31135U 07013A   20231.98372545  .00002042  00000-0  27648-4 0  9994
2 31135   2.4681  64.8678 0011569  73.6678 286.4648 15.32450906741650
AIM                     
1 31304U 07015A   20232.57074949  .00000578  00000-0  36051-4 0  9997
2 31304  97.8982 117.6886 0006104 130.8104 229.3656 15.13678000730230
FGRST (GLAST)           
1 33053U 08029A   20232.56216426  .00000439  00000-0  82882-5 0  9993
2 33053  25.5836  30.6011 0012449  19.2856 340.8149 15.11359840672873
WISE                    
1 36119U 09071A   20232.38162721  .00000586  00000-0  22581-4 0  9997
2 36119  97.3240 267.7938 0003556 133.5442 226.6095 15.30193359593444
SDO                     
1 36395U 10005A   20232.18285147 -.00000088  00000-0  00000+0 0  9993
2 36395  30.4232 120.2572 0001729  10.9256 160.4531  1.00276261 38694
CRYOSAT 2               
1 36508U 10013A   20232.52344054  .00000055  00000-0  12958-4 0  9992
2 36508  92.0296 123.0371 0006442  19.4303 340.7148 14.51903607549422
X-SAT                   
1 37389U 11015C   20232.45771248 -.00000022  00000-0  84436-5 0  9990
2 37389  98.4297 285.2684 0015249 104.2798 256.0078 14.24380379485251
GCOM-W1 (SHIZUKU)       
1 38337U 12025A   20232.45368603  .00000010  00000-0  12153-4 0  9995
2 38337  98.1998 171.5573 0002147 115.1741 355.5447 14.57071577439174
NUSTAR                  
1 38358U 12031A   20232.31101093  .00000885  00000-0  18751-4 0  9998
2 38358   6.0257 172.4219 0011173  76.5129 283.6244 14.88327803445396
NEOSSAT                 
1 39089U 13009D   20232.53717268  .00000031  00000-0  26175-4 0  9999
2 39089  98.4639  73.1159 0012530  98.9902 261.2702 14.34518271391597
IRIS                    
1 39197U 13033A   20232.53785410  .00000048  00000-0  13712-4 0  9991
2 39197  97.9607  53.9410 0028359  28.5798 331.6960 14.78745566385408
HISAKI (SPRINT-A)       
1 39253U 13049A   20232.49273756  .00000040  00000-0 -29547-4 0  9997
2 39253  29.7180 233.9303 0137332  52.6672 308.6326 13.55225010342563
CASSIOPE                
1 39265U 13055A   20232.52015865  .00002154  00000-0  58799-4 0  9994
2 39265  80.9642 248.4720 0660695 118.4750 248.4611 14.29664793356811
STSAT-3                 
1 39422U 13066G   20232.57614384  .00000112  00000-0  17069-4 0  9994
2 39422  97.5081 262.1434 0022587 347.4437  12.6215 14.89850182366536
SWARM B                 
1 39451U 13067A   20232.52714799  .00000271  00000-0  10362-4 0  9998
2 39451  87.7482 260.9234 0002545  62.9812 297.1693 15.21769464359559
SWARM A                 
1 39452U 13067B   20232.55684862  .00000896  00000-0  18229-4 0  9992
2 39452  87.3594 107.7652 0003357  98.3912 261.7726 15.44659429378928
SWARM C                 
1 39453U 13067C   20232.55678513  .00000893  00000-0  18149-4 0  9997
2 39453  87.3448 108.5946 0003353  98.3619 261.8019 15.44660184378883
BRITE-CA1 (TORONTO)     
1 40020U 14033L   20232.51923613 -.00000013  00000-0  62398-5 0  9994
2 40020  97.7317  57.1200 0086203 230.8663 128.4857 14.66655461329894
OCO 2                   
1 40059U 14035A   20232.56696901  .00000006  00000-0  11302-4 0  9999
2 40059  98.2115 172.4053 0001529  82.4933 277.6440 14.57110585326215
BRITE-PL2 (HEWELIUSZ)   
1 40119U 14049B   20232.20700120  .00000056  00000-0  13104-4 0  9998
2 40119  97.8955 323.8110 0015968 263.3865  96.5532 14.84524653325091
RESURS P2               
1 40360U 14087A   20232.40798706  .00000342  00000-0  12869-4 0  9992
2 40360  97.2449 319.9851 0008456 329.3812  99.7069 15.33616884315966
MMS 1                   
1 40482U 15011A   20227.99652778 -.00002038  00000-0  00000+0 0  9995
2 40482  29.6746 119.9606 8573671  22.8905 359.5226  0.28645886 11381
MMS 2                   
1 40483U 15011B   20227.99652778 -.00002037  00000-0  00000+0 0  9995
2 40483  29.6736 119.9613 8571163  22.8928 359.5168  0.28645887 11362
MMS 3                   
1 40484U 15011C   20231.99938319 -.00001780  00000-0  00000+0 0  9993
2 40484  29.6571 119.8601 8570832  23.0834  52.0914  0.28630011 11375
MMS 4                   
1 40485U 15011D   20227.99652778 -.00002038  00000-0  00000+0 0  9998
2 40485  29.6759 119.9755 8572892  22.8950 359.4796  0.28643550 11362
ASTROSAT                
1 40930U 15052A   20232.39714099  .00000694  00000-0  84297-5 0  9994
2 40930   5.9959 253.6695 0008056  78.1338 281.9693 14.76325172264536
DAMPE                   
1 41173U 15078A   20232.54216192  .00000049  00000-0  49123-5 0  9993
2 41173  97.3267 225.0961 0014832  34.9941  79.7490 15.23890981260005
PISAT                   
1 41784U 16059B   20232.39790902  .00000065  00000-0  21453-4 0  9993
2 41784  98.0137 287.1660 0033252 114.3058 246.1623 14.63531856208119
HXMT (HUIYAN)           
1 42758U 17034A   20232.47368007  .00000115  00000-0  20859-4 0  9990
2 42758  43.0198  50.2632 0009702  57.9721 341.6992 15.08869410175391
FLYING LAPTOP           
1 42831U 17042G   20232.60837112  .00000223  00000-0  27785-4 0  9999
2 42831  97.5124 111.5419 0015686  75.9889 284.3073 14.91147490168701
PICSAT                  
1 43132U 18004X   20232.19583222  .00001073  00000-0  46471-4 0  9994
2 43132  97.4437 303.1454 0009372 183.0138 177.1045 15.24547974144613
ZHANGZHENG-1 (CSES)     
1 43194U 18015C   20232.53947054  .00000633  00000-0  31608-4 0  9996
2 43194  97.4434 356.8102 0013820 249.2437 174.8931 15.21025958141258
ICON                    
1 44628U 19068A   20232.58017095  .00000402  00000-0  19219-4 0  9994
2 44628  26.9912 341.6614 0018842 296.5124  63.3502 14.91719608 46861
